1 41860U 16069B   18296.87366343  .00000042  00000-0  00000-0 0  9993
2 41860  54.5810 178.5953 0003072 331.0486  29.0398  1.70473082 12038
1 41860U 16069B   18299.80660130  .00000051  00000-0  00000+0 0  9999
2 41860  54.5811 178.5136 0003030 332.4756  27.6199  1.70473033 12085
1 41860U 16069B   18300.97976411  .00000047  00000-0  00000-0 0  9998
2 41860  54.5812 178.4809 0003011 333.1292  26.9627  1.70473078 12104
1 41860U 16069B   18301.56634955  .00000044  00000-0  00000-0 0  9995
2 41860  54.5812 178.4645 0002997 333.6082  26.4810  1.70472941 12114
1 41860U 16069B   18302.73951066  .00000037  00000-0  00000+0 0  9991
2 41860  54.5813 178.4318 0002982 334.2179  25.8650  1.70472913 12136
1 41860U 16069B   18303.91266877  .00000031  00000-0  00000-0 0  9996
2 41860  54.5814 178.3991 0002958 335.1027  24.9751  1.70473031 12154
1 41860U 16069B   18305.67242175  .00000028  00000-0  00000+0 0  9991
2 41860  54.5815 178.3501 0002923 336.2484  23.8275  1.70473032 12186
1 41860U 16069B   18306.25901121  .00000029  00000-0  00000-0 0  9991
2 41860  54.5816 178.3337 0002913 336.5698  23.5073  1.70472978 12195
1 41860U 16069B   18308.60536892  .00000040  00000-0  00000+0 0  9993
2 41860  54.5817 178.2683 0002879 337.5311  22.5569  1.70473051 12230
1 41860U 16069B   18308.60536892  .00000040  00000-0  00000-0 0  9994
2 41860  54.5817 178.2683 0002879 337.5311  22.5569  1.70473051 12230
1 41860U 16069B   18309.77854814  .00000044  00000-0  00000-0 0  9994
2 41860  54.5818 178.2356 0002869 337.9372  22.1562  1.70473077 12257
1 41860U 16069B   18310.95172387  .00000045  00000-0  00000+0 0  9994
2 41860  54.5819 178.2029 0002850 338.5446  21.5522  1.70473112 12275
1 41860U 16069B   18312.71147764  .00000041  00000-0  00000-0 0  9998
2 41860  54.5821 178.1539 0002813 339.5315  20.5646  1.70473176 12308
1 41860U 16069B   18316.23096741  .00000036  00000-0  00000+0 0  9990
2 41860  54.5822 178.0559 0002747 341.2919  18.7914  1.70473245 12366
1 41860U 16069B   18317.40413199  .00000039  00000-0  00000-0 0  9994
2 41860  54.5823 178.0232 0002733 341.5754  18.5045  1.70473255 12386
1 41860U 16069B   18317.40413286  .00000039  00000-0  00000-0 0  9991
2 41860  54.5824 178.0233 0002726 341.7496  18.3304  1.70473247 12382
1 41860U 16069B   18317.99071536  .00000042  00000-0  00000-0 0  9997
2 41860  54.5825 178.0069 0002722 341.9011  18.1781  1.70473277 12392
1 41860U 16069B   18319.75046876  .00000053  00000-0  00000+0 0  9993
2 41860  54.5827 177.9578 0002701 342.4573  17.6229  1.70473369 12420
1 41860U 16069B   18320.33705900  .00000058  00000-0  00000-0 0  9995
2 41860  54.5829 177.9414 0002689 342.8846  17.1974  1.70473297 12436
1 41860U 16069B   18320.92364618  .00000062  00000-0  00000-0 0  9992
2 41860  54.5829 177.9251 0002683 343.1296  16.9544  1.70473321 12441
1 41860U 16069B   18324.44318122  .00000090  00000-0  00000+0 0  9992
2 41860  54.5834 177.8270 0002646 344.2168  15.8820  1.70473204 12508
1 41860U 16069B   18325.61635142  .00000095  00000-0  00000-0 0  9992
2 41860  54.5835 177.7943 0002630 344.8369  15.2637  1.70473241 12520
1 41860U 16069B   18326.20293515  .00000097  00000-0  00000-0 0  9994
2 41860  54.5835 177.7779 0002625 345.1297  14.9705  1.70473234 12530
1 41860U 16069B   18328.54925571  .00000091  00000-0  00000+0 0  9990
2 41860  54.5838 177.7125 0002612 345.8948  14.1941  1.70473194 12577
1 41860U 16069B   18329.72241084  .00000084  00000-0  00000-0 0  9994
2 41860  54.5840 177.6798 0002604 346.3689  13.7110  1.70473165 12597
1 41860U 16069B   18330.89556674  .00000076  00000-0  00000+0 0  9998
2 41860  54.5841 177.6471 0002589 346.8950  13.1761  1.70473145 12611
1 41860U 16069B   18333.24189029  .00000071  00000-0  00000+0 0  9991
2 41860  54.5845 177.5817 0002565 347.8790  12.1835  1.70473185 12654
1 41860U 16069B   18334.41506186  .00000074  00000-0  00000-0 0  9992
2 41860  54.5847 177.5490 0002554 348.2666  11.7969  1.70473187 12675
1 41860U 16069B   18335.58823665  .00000079  00000-0  00000+0 0  9999
2 41860  54.5848 177.5163 0002543 348.5328  11.5337  1.70473196 12698
1 41860U 16069B   18335.58823665  .00000079  00000-0  00000-0 0  9990
2 41860  54.5848 177.5163 0002543 348.5328  11.5337  1.70473196 12698
1 41860U 16069B   18336.17482231  .00000081  00000-0  00000-0 0  9999
2 41860  54.5850 177.5000 0002544 348.5386  11.5294  1.70473255 12706
1 41860U 16069B   18337.93458088  .00000083  00000-0  00000+0 0  9998
2 41860  54.5852 177.4510 0002532 348.8285  11.2418  1.70473266 12731
1 41860U 16069B   18338.52116467  .00000082  00000-0  00000-0 0  9996
2 41860  54.5853 177.4347 0002529 348.9554  11.1144  1.70473275 12742
1 41860U 16069B   18340.28090768  .00000075  00000-0  00000+0 0  9998
2 41860  54.5855 177.3857 0002508 349.4794  10.5842  1.70473343 12775
1 41860U 16069B   18340.28090768  .00000075  00000-0  00000-0 0  9999
2 41860  54.5855 177.3857 0002508 349.4794  10.5842  1.70473343 12775
1 41860U 16069B   18340.86748497  .00000072  00000-0  00000-0 0  9999
2 41860  54.5856 177.3693 0002506 349.3010  10.7592  1.70473393 12782
1 41860U 16069B   18342.62722196  .00000066  00000-0  00000+0 0  9995
2 41860  54.5858 177.3204 0002477 349.7835  10.2656  1.70473400 12817
1 41860U 16069B   18342.62722196  .00000066  00000-0  00000-0 0  9996
2 41860  54.5858 177.3204 0002477 349.7835  10.2656  1.70473400 12817
1 41860U 16069B   18343.21380027  .00000066  00000-0  00000-0 0  9995
2 41860  54.5858 177.3041 0002470 349.7703  10.2751  1.70473410 12821
1 41860U 16069B   18344.38695872  .00000067  00000-0  00000-0 0  9992
2 41860  54.5860 177.2714 0002450 349.9862  10.0531  1.70473449 12844
1 41860U 16069B   18346.73328471  .00000077  00000-0  00000+0 0  9991
2 41860  54.5863 177.2061 0002423 350.0084  10.0252  1.70473525 12880
1 41860U 16069B   18346.73328471  .00000077  00000-0  00000-0 0  9992
2 41860  54.5863 177.2061 0002423 350.0084  10.0252  1.70473525 12880
1 41860U 16069B   18347.90645564  .00000084  00000-0  00000-0 0  9995
2 41860  54.5865 177.1734 0002402 350.3197   9.7149  1.70473508 12907
1 41860U 16069B   18349.66621558  .00000096  00000-0  00000+0 0  9999
2 41860  54.5868 177.1244 0002381 350.6004   9.4387  1.70473484 12939
1 41860U 16069B   18352.59914367  .00000112  00000-0  00000+0 0  9997
2 41860  54.5872 177.0427 0002380 350.6504   9.3937  1.70473448 12985
1 41860U 16069B   18353.77230830  .00000113  00000-0  00000-0 0  9996
2 41860  54.5874 177.0100 0002384 350.5758   9.4654  1.70473398 13004
1 41860U 16069B   18353.77230832  .00000113  00000-0  00000-0 0  9998
2 41860  54.5873 177.0100 0002380 350.5792   9.4621  1.70473401 13006
1 41860U 16069B   18354.94546412  .00000110  00000-0  00000-0 0  9999
2 41860  54.5877 176.9772 0002383 350.3678   9.6669  1.70473417 13020
1 41860U 16069B   18354.94546549  .00000110  00000-0  00000+0 0  9999
2 41860  54.5875 176.9773 0002381 350.4542   9.5806  1.70473390 13020
1 41860U 16069B   18356.11861834  .00000103  00000-0  00000-0 0  9990
2 41860  54.5875 176.9445 0002376 350.4122   9.6131  1.70473369 13044
1 41860U 16069B   18357.29176924  .00000093  00000-0  00000+0 0  9996
2 41860  54.5877 176.9118 0002373 350.4136   9.6010  1.70473347 13069
1 41860U 16069B   18358.46492180  .00000085  00000-0  00000-0 0  9993
2 41860  54.5879 176.8791 0002370 350.5325   9.4724  1.70473340 13080
1 41860U 16069B   18359.63807956  .00000079  00000-0  00000+0 0  9996
2 41860  54.5882 176.8465 0002367 350.5229   9.4753  1.70473324 13108
1 41860U 16069B   18360.81124273  .00000077  00000-0  00000-0 0  9991
2 41860  54.5884 176.8137 0002364 350.4755   9.5199  1.70473352 13124
1 41860U 16069B   18361.98441057  .00000079  00000-0  00000+0 0  9993
2 41860  54.5885 176.7811 0002361 350.4617   9.5343  1.70473411 13146
1 41860U 16069B   18364.33075512  .00000082  00000-0  00000-0 0  9999
2 41860  54.5888 176.7158 0002365 350.1338   9.8662  1.70473414 13188
1 41860U 16069B   18364.33075519  .00000082  00000-0  00000+0 0  9995
2 41860  54.5888 176.7158 0002364 350.1671   9.8330  1.70473410 13185
1 41860U 16069B   18365.50392292  .00000079  00000-0  00000-0 0  9992
2 41860  54.5889 176.6831 0002360 349.9679  10.0317  1.70473422 13208
